[{"OBJECT_NAME":"YAOGAN-43 01H","OBJECT_ID":"2024-148H","EPOCH":"2026-03-10T00:13:57.702432","MEAN_MOTION":15.25826805,"ECCENTRICITY":0.000635,"INCLINATION":34.994,"RA_OF_ASC_NODE":64.6147,"ARG_OF_PERICENTER":359.2394,"MEAN_ANOMALY":0.8311,"EPHEMERIS_TYPE":0,"CLASSIFICATION_TYPE":"U","NORAD_CAT_ID":60465,"ELEMENT_SET_NO":999,"REV_AT_EPOCH":8702,"BSTAR":0.00039232254,"MEAN_MOTION_DOT":0.00010268,"MEAN_MOTION_DDOT":0},{"OBJECT_NAME":"STARLINK-34198","OBJECT_ID":"2025-127U","EPOCH":"2026-03-09T07:30:21.320064","MEAN_MOTION":15.27593906,"ECCENTRICITY":0.00013649,"INCLINATION":42.9952,"RA_OF_ASC_NODE":181.5401,"ARG_OF_PERICENTER":174.3802,"MEAN_ANOMALY":185.7065,"EPHEMERIS_TYPE":0,"CLASSIFICATION_TYPE":"U","NORAD_CAT_ID":64388,"ELEMENT_SET_NO":999,"REV_AT_EPOCH":4241,"BSTAR":0.0010034352,"MEAN_MOTION_DOT":0.00027465,"MEAN_MOTION_DDOT":0}]
